[{"OBJECT_NAME":"ONEWEB-0638","OBJECT_ID":"2023-029G","EPOCH":"2025-11-01T11:54:49.810176","MEAN_MOTION":13.14502468,"ECCENTRICITY":0.00014285,"INCLINATION":87.9002,"RA_OF_ASC_NODE":335.132,"ARG_OF_PERICENTER":103.6983,"MEAN_ANOMALY":256.4306,"EPHEMERIS_TYPE":0,"CLASSIFICATION_TYPE":"U","NORAD_CAT_ID":55802,"ELEMENT_SET_NO":999,"REV_AT_EPOCH":12948,"BSTAR":-0.0011674124,"MEAN_MOTION_DOT":-4.2e-6,"MEAN_MOTION_DDOT":0},{"OBJECT_NAME":"ONEWEB-0639","OBJECT_ID":"2023-029H","EPOCH":"2025-11-01T13:57:25.474176","MEAN_MOTION":13.19725296,"ECCENTRICITY":0.00028759,"INCLINATION":87.9229,"RA_OF_ASC_NODE":350.2707,"ARG_OF_PERICENTER":112.6049,"MEAN_ANOMALY":247.5388,"EPHEMERIS_TYPE":0,"CLASSIFICATION_TYPE":"U","NORAD_CAT_ID":55803,"ELEMENT_SET_NO":999,"REV_AT_EPOCH":12888,"BSTAR":7.0909856e-5,"MEAN_MOTION_DOT":4.1e-7,"MEAN_MOTION_DDOT":0},{"OBJECT_NAME":"ONEWEB-0640","OBJECT_ID":"2023-029J","EPOCH":"2025-11-01T12:08:32.139456","MEAN_MOTION":13.14504853,"ECCENTRICITY":0.00016805,"INCLINATION":87.9008,"RA_OF_ASC_NODE":335.1155,"ARG_OF_PERICENTER":120.7341,"MEAN_ANOMALY":239.3955,"EPHEMERIS_TYPE":0,"CLASSIFICATION_TYPE":"U","NORAD_CAT_ID":55804,"ELEMENT_SET_NO":999,"REV_AT_EPOCH":12950,"BSTAR":-0.00045640525,"MEAN_MOTION_DOT":-1.56e-6,"MEAN_MOTION_DDOT":0},{"OBJECT_NAME":"ONEWEB-0641","OBJECT_ID":"2023-029K","EPOCH":"2025-11-01T13:50:35.623680","MEAN_MOTION":13.19725915,"ECCENTRICITY":0.00020925,"INCLINATION":87.924,"RA_OF_ASC_NODE":350.2485,"ARG_OF_PERICENTER":100.9573,"MEAN_ANOMALY":259.1796,"EPHEMERIS_TYPE":0,"CLASSIFICATION_TYPE":"U","NORAD_CAT_ID":55805,"ELEMENT_SET_NO":999,"REV_AT_EPOCH":12889,"BSTAR":-5.5982708e-5,"MEAN_MOTION_DOT":-9.0e-8,"MEAN_MOTION_DDOT":0},{"OBJECT_NAME":"ONEWEB-0642","OBJECT_ID":"2023-029L","EPOCH":"2025-11-01T13:43:46.384032","MEAN_MOTION":13.1972548,"ECCENTRICITY":0.00027615,"INCLINATION":87.9231,"RA_OF_ASC_NODE":350.2769,"ARG_OF_PERICENTER":105.3874,"MEAN_ANOMALY":254.7564,"EPHEMERIS_TYPE":0,"CLASSIFICATION_TYPE":"U","NORAD_CAT_ID":55806,"ELEMENT_SET_NO":999,"REV_AT_EPOCH":12888,"BSTAR":-1.0351618e-5,"MEAN_MOTION_DOT":9.0e-8,"MEAN_MOTION_DDOT":0},{"OBJECT_NAME":"ONEWEB-0643","OBJECT_ID":"2023-029M","EPOCH":"2025-11-01T11:25:08.826240","MEAN_MOTION":13.14504357,"ECCENTRICITY":0.00026169,"INCLINATION":87.9011,"RA_OF_ASC_NODE":335.1068,"ARG_OF_PERICENTER":96.1401,"MEAN_ANOMALY":264.0027,"EPHEMERIS_TYPE":0,"CLASSIFICATION_TYPE":"U","NORAD_CAT_ID":55807,"ELEMENT_SET_NO":999,"REV_AT_EPOCH":12947,"BSTAR":0.00042341654,"MEAN_MOTION_DOT":1.7e-6,"MEAN_MOTION_DDOT":0},{"OBJECT_NAME":"ONEWEB-0644","OBJECT_ID":"2023-029N","EPOCH":"2025-11-01T13:36:56.625984","MEAN_MOTION":13.19725731,"ECCENTRICITY":0.00023827,"INCLINATION":87.9231,"RA_OF_ASC_NODE":350.2867,"ARG_OF_PERICENTER":102.1664,"MEAN_ANOMALY":257.9736,"EPHEMERIS_TYPE":0,"CLASSIFICATION_TYPE":"U","NORAD_CAT_ID":55808,"ELEMENT_SET_NO":999,"REV_AT_EPOCH":12888,"BSTAR":0.00022253997,"MEAN_MOTION_DOT":1.02e-6,"MEAN_MOTION_DDOT":0},{"OBJECT_NAME":"ONEWEB-0645","OBJECT_ID":"2023-029P","EPOCH":"2025-11-01T13:43:12.139392","MEAN_MOTION":13.1813059,"ECCENTRICITY":0.00021164,"INCLINATION":87.9229,"RA_OF_ASC_NODE":350.273,"ARG_OF_PERICENTER":111.7371,"MEAN_ANOMALY":248.3986,"EPHEMERIS_TYPE":0,"CLASSIFICATION_TYPE":"U","NORAD_CAT_ID":55809,"ELEMENT_SET_NO":999,"REV_AT_EPOCH":12888,"BSTAR":0.0002110414,"MEAN_MOTION_DOT":9.5e-7,"MEAN_MOTION_DDOT":0},{"OBJECT_NAME":"ONEWEB-0646","OBJECT_ID":"2023-029Q","EPOCH":"2025-11-01T09:06:15.577344","MEAN_MOTION":13.19722351,"ECCENTRICITY":0.00021854,"INCLINATION":87.9234,"RA_OF_ASC_NODE":350.3083,"ARG_OF_PERICENTER":99.992,"MEAN_ANOMALY":260.1459,"EPHEMERIS_TYPE":0,"CLASSIFICATION_TYPE":"U","NORAD_CAT_ID":55810,"ELEMENT_SET_NO":999,"REV_AT_EPOCH":12884,"BSTAR":0.00010873186,"MEAN_MOTION_DOT":5.6e-7,"MEAN_MOTION_DDOT":0},{"OBJECT_NAME":"ONEWEB-0648","OBJECT_ID":"2023-029R","EPOCH":"2025-11-01T12:29:05.988480","MEAN_MOTION":13.14501906,"ECCENTRICITY":0.00025506,"INCLINATION":87.8999,"RA_OF_ASC_NODE":335.0607,"ARG_OF_PERICENTER":114.681,"MEAN_ANOMALY":245.4586,"EPHEMERIS_TYPE":0,"CLASSIFICATION_TYPE":"U","NORAD_CAT_ID":55811,"ELEMENT_SET_NO":999,"REV_AT_EPOCH":12948,"BSTAR":0.00018824899,"MEAN_MOTION_DOT":8.3e-7,"MEAN_MOTION_DDOT":0},{"OBJECT_NAME":"ONEWEB-0649","OBJECT_ID":"2023-029S","EPOCH":"2025-11-01T13:21:01.826496","MEAN_MOTION":13.19725325,"ECCENTRICITY":0.00022155,"INCLINATION":87.9238,"RA_OF_ASC_NODE":350.2674,"ARG_OF_PERICENTER":107.0885,"MEAN_ANOMALY":253.0491,"EPHEMERIS_TYPE":0,"CLASSIFICATION_TYPE":"U","NORAD_CAT_ID":55812,"ELEMENT_SET_NO":999,"REV_AT_EPOCH":12890,"BSTAR":0.00016596473,"MEAN_MOTION_DOT":7.9e-7,"MEAN_MOTION_DDOT":0},{"OBJECT_NAME":"ONEWEB-0650","OBJECT_ID":"2023-029T","EPOCH":"2025-11-01T13:14:12.018336","MEAN_MOTION":13.19726361,"ECCENTRICITY":0.00020769,"INCLINATION":87.923,"RA_OF_ASC_NODE":350.2769,"ARG_OF_PERICENTER":99.3896,"MEAN_ANOMALY":260.7472,"EPHEMERIS_TYPE":0,"CLASSIFICATION_TYPE":"U","NORAD_CAT_ID":55813,"ELEMENT_SET_NO":999,"REV_AT_EPOCH":12887,"BSTAR":0.00013551904,"MEAN_MOTION_DOT":6.7e-7,"MEAN_MOTION_DDOT":0},{"OBJECT_NAME":"ONEWEB-0652","OBJECT_ID":"2023-029U","EPOCH":"2025-11-01T12:01:41.570976","MEAN_MOTION":13.14504269,"ECCENTRICITY":0.00017475,"INCLINATION":87.9007,"RA_OF_ASC_NODE":335.0851,"ARG_OF_PERICENTER":90.5966,"MEAN_ANOMALY":269.5364,"EPHEMERIS_TYPE":0,"CLASSIFICATION_TYPE":"U","NORAD_CAT_ID":55814,"ELEMENT_SET_NO":999,"REV_AT_EPOCH":12945,"BSTAR":-0.00059718753,"MEAN_MOTION_DOT":-2.09e-6,"MEAN_MOTION_DDOT":0},{"OBJECT_NAME":"ONEWEB-0653","OBJECT_ID":"2023-029V","EPOCH":"2025-11-01T11:38:52.767744","MEAN_MOTION":13.14501634,"ECCENTRICITY":0.00016835,"INCLINATION":87.9009,"RA_OF_ASC_NODE":335.0778,"ARG_OF_PERICENTER":99.096,"MEAN_ANOMALY":261.036,"EPHEMERIS_TYPE":0,"CLASSIFICATION_TYPE":"U","NORAD_CAT_ID":55815,"ELEMENT_SET_NO":999,"REV_AT_EPOCH":12948,"BSTAR":3.1509743e-5,"MEAN_MOTION_DOT":2.4e-7,"MEAN_MOTION_DDOT":0},{"OBJECT_NAME":"ONEWEB-0654","OBJECT_ID":"2023-029W","EPOCH":"2025-11-01T11:32:00.185280","MEAN_MOTION":13.14503945,"ECCENTRICITY":0.00015494,"INCLINATION":87.9005,"RA_OF_ASC_NODE":335.0782,"ARG_OF_PERICENTER":87.447,"MEAN_ANOMALY":272.6837,"EPHEMERIS_TYPE":0,"CLASSIFICATION_TYPE":"U","NORAD_CAT_ID":55816,"ELEMENT_SET_NO":999,"REV_AT_EPOCH":12950,"BSTAR":-0.00011371402,"MEAN_MOTION_DOT":-2.9e-7,"MEAN_MOTION_DDOT":0},{"OBJECT_NAME":"ONEWEB-0656","OBJECT_ID":"2023-029X","EPOCH":"2025-11-01T11:30:01.687680","MEAN_MOTION":13.2077195,"ECCENTRICITY":0.00015266,"INCLINATION":87.9198,"RA_OF_ASC_NODE":319.8396,"ARG_OF_PERICENTER":82.3,"MEAN_ANOMALY":277.8307,"EPHEMERIS_TYPE":0,"CLASSIFICATION_TYPE":"U","NORAD_CAT_ID":55817,"ELEMENT_SET_NO":999,"REV_AT_EPOCH":13109,"BSTAR":0.0001856403,"MEAN_MOTION_DOT":8.8e-7,"MEAN_MOTION_DDOT":0}]
