ONEWEB-0638             
1 55802U 23029G   25305.49640984 -.00000420  00000+0 -11674-2 0  9993
2 55802  87.9002 335.1320 0001428 103.6983 256.4306 13.14502468129484
ONEWEB-0639             
1 55803U 23029H   25305.58154484  .00000041  00000+0  70910-4 0  9996
2 55803  87.9229 350.2707 0002875 112.6049 247.5388 13.19725296128888
ONEWEB-0640             
1 55804U 23029J   25305.50592754 -.00000156  00000+0 -45641-3 0  9996
2 55804  87.9008 335.1155 0001680 120.7341 239.3955 13.14504853129509
ONEWEB-0641             
1 55805U 23029K   25305.57680120 -.00000009  00000+0 -55983-4 0  9997
2 55805  87.9240 350.2485 0002092 100.9573 259.1796 13.19725915128890
ONEWEB-0642             
1 55806U 23029L   25305.57206463  .00000009  00000+0 -10352-4 0  9992
2 55806  87.9231 350.2769 0002761 105.3874 254.7564 13.19725480128882
ONEWEB-0643             
1 55807U 23029M   25305.47579660  .00000170  00000+0  42342-3 0  9995
2 55807  87.9011 335.1068 0002616  96.1401 264.0027 13.14504357129472
ONEWEB-0644             
1 55808U 23029N   25305.56732206  .00000102  00000+0  22254-3 0  9998
2 55808  87.9231 350.2867 0002382 102.1664 257.9736 13.19725731128889
ONEWEB-0645             
1 55809U 23029P   25305.57166828  .00000095  00000+0  21104-3 0  9995
2 55809  87.9229 350.2730 0002116 111.7371 248.3986 13.18130590128885
ONEWEB-0646             
1 55810U 23029Q   25305.37934696  .00000056  00000+0  10873-3 0  9999
2 55810  87.9234 350.3083 0002185  99.9920 260.1459 13.19722351128844
ONEWEB-0648             
1 55811U 23029R   25305.52020820  .00000083  00000+0  18825-3 0  9997
2 55811  87.8999 335.0607 0002550 114.6810 245.4586 13.14501906129487
ONEWEB-0649             
1 55812U 23029S   25305.55627114  .00000079  00000+0  16596-3 0  9998
2 55812  87.9238 350.2674 0002215 107.0885 253.0491 13.19725325128908
ONEWEB-0650             
1 55813U 23029T   25305.55152799  .00000067  00000+0  13552-3 0  9997
2 55813  87.9230 350.2769 0002076  99.3896 260.7472 13.19726361128877
ONEWEB-0652             
1 55814U 23029U   25305.50117559 -.00000209  00000+0 -59719-3 0  9993
2 55814  87.9007 335.0851 0001747  90.5966 269.5364 13.14504269129456
ONEWEB-0653             
1 55815U 23029V   25305.48533296  .00000024  00000+0  31510-4 0  9994
2 55815  87.9009 335.0778 0001683  99.0960 261.0360 13.14501634129483
ONEWEB-0654             
1 55816U 23029W   25305.48055770 -.00000029  00000+0 -11371-3 0  9990
2 55816  87.9005 335.0782 0001549  87.4470 272.6837 13.14503945129500
ONEWEB-0656             
1 55817U 23029X   25305.47918620  .00000088  00000+0  18564-3 0  9996
2 55817  87.9198 319.8396 0001526  82.3000 277.8307 13.20771950131099
